[ {"name": "STARLINK-5322", "line1": "1 55303U 23010AL  26092.87604695  .00001251  00000+0  11255-3 0  9991", "line2": "2 55303  70.0007 343.2769 0002947 273.2114  86.8707 14.98362690176400"}, {"name": "STARLINK-5318", "line1": "1 55304U 23010AM  26092.58793894  .00000755  00000+0  71024-4 0  9999", "line2": "2 55304  69.9989 324.0088 0002821 270.2260  89.8575 14.98331328176857"}, {"name": "STARLINK-5316", "line1": "1 55305U 23010AN  26092.65055208  .00000325  00000+0  35071-4 0  9993", "line2": "2 55305  69.9991 324.2305 0002760 271.0523  89.0320 14.98328954176860"}, {"name": "STARLINK-5295", "line1": "1 55306U 23010AP  26092.28730671 -.00000224  00000+0 -10952-4 0  9998", "line2": "2 55306  69.9983 305.0925 0002639 282.0910  77.9953 14.98334069177306"}, {"name": "STARLINK-5288", "line1": "1 55307U 23010AQ  26092.02442733  .00002675  00000+0  23182-3 0  9998", "line2": "2 55307  69.9983 305.7813 0002763 269.6639  90.4203 14.98345904177260"}, {"name": "STARLINK-5315", "line1": "1 55309U 23010AS  26092.84223436 -.00000643  00000+0 -46084-4 0  9999", "line2": "2 55309  69.9978 303.4175 0003181 266.0005  94.0790 14.98331244177392"}, {"name": "STARLINK-5309", "line1": "1 55310U 23010AT  26092.87979699  .00000321  00000+0  34721-4 0  9999", "line2": "2 55310  69.9982 303.5465 0002525 273.1037  86.9833 14.98333026177395"}, {"name": "STARLINK-5312", "line1": "1 55311U 23010AU  26092.55017267  .00000333  00000+0  35702-4 0  9992", "line2": "2 55311  69.9984 304.4043 0002639 271.1840  88.9017 14.98331982178213"}, {"name": "STARLINK-5296", "line1": "1 55312U 23010AV  26092.85474378  .00000242  00000+0  28038-4 0  9999", "line2": "2 55312  69.9987 303.3474 0003045 270.7963  89.2847 14.98332237178259"}, {"name": "STARLINK-5313", "line1": "1 55313U 23010AW  26092.87145138 -.00000215  00000+0 -10190-4 0  9993", "line2": "2 55313  69.9986 303.5171 0002740 269.7648  90.3197 14.98335207178266"}, {"name": "STARLINK-5305", "line1": "1 55314U 23010AX  26092.87562588  .00000282  00000+0  31442-4 0  9991", "line2": "2 55314  69.9985 303.5309 0002676 268.2236  91.8616 14.98331139178266"}, {"name": "STARLINK-4623", "line1": "1 55315U 23010AY  26092.88836888  .00000439  00000+0  44590-4 0  9992", "line2": "2 55315  69.9991 323.4535 0002974 272.1279  87.9539 14.98333479176883"}, {"name": "STARLINK-5257", "line1": "1 55316U 23010AZ  26092.04528413  .00000262  00000+0  29707-4 0  9990", "line2": "2 55316  69.9986 305.4663 0002714 269.6945  90.3903 14.98332647178143"}, {"name": "STARLINK-5265", "line1": "1 55317U 23010BA  26092.86727759 -.00000101  00000+0 -63509-6 0  9999", "line2": "2 55317  69.9983 303.5300 0002983 269.9003  90.1814 14.98332386178266"}, {"name": "STARLINK-5180", "line1": "1 55318U 23010BB  26092.86310073  .00000492  00000+0  48991-4 0  9994", "line2": "2 55318  69.9984 303.4883 0002813 269.9109  90.1728 14.98332387178267"}, {"name": "STARLINK-5196", "line1": "1 55319U 23010BC  26092.85892560  .00000476  00000+0  47652-4 0  9995", "line2": "2 55319  69.9982 303.4741 0002659 269.6895  90.3960 14.98334144178269"}, {"name": "STARLINK-5492", "line1": "1 55331U 23013A   26092.83335647 -.00002959  00000+0 -10060-3 0  9990", "line2": "2 55331  43.0008 166.9456 0001977 270.5947 219.0111 15.26758161  5764"}, {"name": "STARLINK-5491", "line1": "1 55332U 23013B   26092.84289856  .00002430  00000+0  10022-3 0  9992", "line2": "2 55332  43.0020 152.5954 0001280 271.7736  88.2969 15.26753991175535"}, {"name": "STARLINK-5493", "line1": "1 55333U 23013C   26092.83335647 -.00006419  00000+0 -22971-3 0  9991", "line2": "2 55333  43.0010 166.8710 0001975 277.2079 243.0093 15.26754547  5837"}, {"name": "STARLINK-5652", "line1": "1 55334U 23013D   26092.83335647 -.00003667  00000+0 -12703-3 0  9996", "line2": "2 55334  43.0009 166.8025 0001526 278.1766 228.3541 15.26751588  5768"}, {"name": "STARLINK-5660", "line1": "1 55335U 23013E   26092.83335647 -.00002451  00000+0 -81670-4 0  9997", "line2": "2 55335  43.0003 167.0531 0001485 286.1808 157.1186 15.26762039  5765"}, {"name": "STARLINK-5655", "line1": "1 55336U 23013F   26092.55533508 -.00000168  00000+0  34195-5 0  9996", "line2": "2 55336  42.9983 153.7976 0000682 279.6425  80.4349 15.26731280175497"}, {"name": "STARLINK-5667", "line1": "1 55337U 23013G   26092.44653602  .00001440  00000+0  63342-4 0  9991", "line2": "2 55337  43.0023 154.7450 0001504 271.5195  88.5484 15.26742925175477"}, {"name": "STARLINK-5658", "line1": "1 55338U 23013H   26092.83335647  .00039978  00000+0  14937-2 0  9992", "line2": "2 55338  42.9999 167.1307 0001198 283.1599 126.4029 15.26701229  5834"}, {"name": "STARLINK-5671", "line1": "1 55339U 23013J   26092.49515293  .00001049  00000+0  74604-4 0  9999", "line2": "2 55339  43.0009 169.8587 0001474 280.3164  79.7516 15.11070339175308"}, {"name": "STARLINK-5675", "line1": "1 55340U 23013K   26092.83335647 -.00011863  00000+0 -44421-3 0  9992", "line2": "2 55340  42.9995 166.3813 0001504 277.1395  89.2748 15.25921500  5710"}, {"name": "STARLINK-5670", "line1": "1 55341U 23013L   26092.83335647  .00041451  00000+0  15872-2 0  9994", "line2": "2 55341  43.0000 167.2495 0001813 284.0772  75.2288 15.25875522  5834"}, {"name": "STARLINK-5657", "line1": "1 55342U 23013M   26092.83335647 -.00008566  00000+0 -31788-3 0  9992", "line2": "2 55342  43.0000 167.1783 0001795 275.9297 112.4380 15.25920522  5832"}, {"name": "STARLINK-5661", "line1": "1 55343U 23013N   26092.83335647 -.00009832  00000+0 -35722-3 0  9992", "line2": "2 55343  42.9996 166.3532 0001400 272.2406 104.1865 15.26751878  5713"}, {"name": "STARLINK-5653", "line1": "1 55345U 23013Q   26092.84482340  .00002112  00000+0  88372-4 0  9990", "line2": "2 55345  43.0013 152.5991 0001296 276.1424  83.9280 15.26747791175531"}, {"name": "STARLINK-5631", "line1": "1 55346U 23013R   26092.83335647 -.00012183  00000+0 -44504-3 0  9996", "line2": "2 55346  42.9996 166.6155 0001652 284.0660 341.2220 15.26755070  5764"}, {"name": "STARLINK-5663", "line1": "1 55347U 23013S   26092.83335647 -.00009894  00000+0 -35946-3 0  9992", "line2": "2 55347  42.9995 166.4027 0001497 271.3133  83.3887 15.26756293  5830"}, {"name": "STARLINK-5609", "line1": "1 55348U 23013T   26092.83335647 -.00011765  00000+0 -42935-3 0  9999", "line2": "2 55348  43.0003 166.7154 0001631 276.1266 306.5444 15.26760417  5761"}, {"name": "STARLINK-5666", "line1": "1 55349U 23013U   26092.83335647 -.00024089  00000+0 -89055-3 0  9997", "line2": "2 55349  42.9997 166.5528 0001447 273.2067  17.9974 15.26766113  5712"}, {"name": "STARLINK-5668", "line1": "1 55350U 23013V   26092.83335647 -.00012911  00000+0 -47226-3 0  9994", "line2": "2 55350  42.9999 166.6499 0001701 279.1166 331.0041 15.26754215  5717"}, {"name": "STARLINK-5659", "line1": "1 55351U 23013W   26092.83335647 -.00002971  00000+0 -10110-3 0  9992", "line2": "2 55351  42.9999 166.7539 0001508 284.6471 280.2586 15.26746867  5846"}, {"name": "STARLINK-5547", "line1": "1 55352U 23013X   26092.61494748  .00007779  00000+0  29923-3 0  9998", "line2": "2 55352  43.0006 164.7774 0001173 259.3994 100.6725 15.26754657175376"}, {"name": "STARLINK-5608", "line1": "1 55353U 23013Y   26092.53954988  .00001233  00000+0  54335-4 0  9992", "line2": "2 55353  43.0021 165.0707 0001337 269.7314  90.3385 15.27580794175363"}, {"name": "STARLINK-5649", "line1": "1 55354U 23013Z   26092.83335647 -.00010362  00000+0 -37686-3 0  9995", "line2": "2 55354  42.9992 166.4430 0001468 288.0025  49.2302 15.26765030  5838"}, {"name": "STARLINK-5647", "line1": "1 55355U 23013AA  26092.83335647  .00052736  00000+0  19662-2 0  9998", "line2": "2 55355  43.0000 166.6843 0001224 273.1813 313.9469 15.26664043  5715"}, {"name": "STARLINK-5651", "line1": "1 55357U 23013AC  26092.83335647  .00047048  00000+0  17565-2 0  9990", "line2": "2 55357  43.0008 166.8414 0001596 281.8155 244.4355 15.26664069  5718"}, {"name": "STARLINK-5622", "line1": "1 55358U 23013AD  26092.83335647 -.00013406  00000+0 -49075-3 0  9996", "line2": "2 55358  42.9998 166.5790 0001264 293.1762 345.9746 15.26756745  5849"}, {"name": "STARLINK-5641", "line1": "1 55359U 23013AE  26092.25848895  .00009142  00000+0  54961-3 0  9997", "line2": "2 55359  42.9975 170.6597 0002182 278.3114  81.7484 15.11044549175277"}, {"name": "STARLINK-5664", "line1": "1 55360U 23013AF  26092.83335647 -.00001486  00000+0 -74221-4 0  9996", "line2": "2 55360  43.0003 181.0631 0001569 283.0478  80.8852 15.11091859  5662"}, {"name": "STARLINK-5665", "line1": "1 55361U 23013AG  26092.48445320  .00001173  00000+0  52164-4 0  9991", "line2": "2 55361  43.0020 154.2120 0001420 272.4618  87.6071 15.27578323175480"}, {"name": "STARLINK-5574", "line1": "1 55362U 23013AH  26092.85105670  .00006286  00000+0  24368-3 0  9998", "line2": "2 55362  43.0014 151.8102 0001548 270.8587  89.2087 15.26758681175543"}, {"name": "STARLINK-5627", "line1": "1 55364U 23013AK  26092.51943779  .00001458  00000+0  98588-4 0  9995", "line2": "2 55364  43.0003 169.1778 0001158 260.9703  99.1011 15.11068159175311"}, {"name": "STARLINK-5639", "line1": "1 55365U 23013AL  26092.58317932  .00001168  00000+0  81528-4 0  9993", "line2": "2 55365  43.0003 182.6402 0001027 270.1760  89.8968 15.11075700175167"}, {"name": "STARLINK-5654", "line1": "1 55366U 23013AM  26092.51854159  .00000912  00000+0  43670-4 0  9996", "line2": "2 55366  43.0002 153.6149 0001235 287.9819  72.0897 15.26745028175499"}, {"name": "STARLINK-5635", "line1": "1 55367U 23013AN  26092.57255393  .00001313  00000+0  58642-4 0  9999", "line2": "2 55367  43.0028 154.0073 0001622 266.7647  93.3018 15.26742807175496"}, {"name": "STARLINK-5625", "line1": "1 55368U 23013AP  26092.86385870  .00003183  00000+0  12826-3 0  9996", "line2": "2 55368  43.0006 151.8988 0001230 274.5815  85.4896 15.26750493175544"}, {"name": "STARLINK-5644", "line1": "1 55369U 23013AQ  26092.83335647 -.00007840  00000+0 -44795-3 0  9997", "line2": "2 55369  43.0004 181.2139 0002284 275.7883  27.5670 15.11068103  5763"}]